ISS (ZARYA)             
1 25544U 98067A   25323.31903918  .00014458  00000+0  26247-3 0  9994
2 25544  51.6333 258.3957 0004144  86.8503 273.2960 15.49817487539229
CSS (TIANHE)            
1 48274U 21035A   25323.84131752  .00018215  00000+0  22811-3 0  9995
2 48274  41.4652 155.6342 0007353 198.6203 161.4367 15.59322159260459
ISS (NAUKA)             
1 49044U 21066A   25323.31903918  .00014458  00000+0  26247-3 0  9990
2 49044  51.6333 258.3957 0004144  86.8503 273.2960 15.49817487230442
CSS (WENTIAN)           
1 53239U 22085A   25323.58512989  .00019179  00000+0  24002-3 0  9998
2 53239  41.4651 157.1900 0007339 196.7661 163.2936 15.59311572173848
CSS (MENGTIAN)          
1 54216U 22143A   25323.58512989  .00019179  00000+0  24002-3 0  9999
2 54216  41.4651 157.1900 0007339 196.7661 163.2936 15.59311572158645
SOYUZ-MS 27             
1 63520U 25072A   25323.31903918  .00014458  00000+0  26247-3 0  9996
2 63520  51.6333 258.3957 0004144  86.8503 273.2960 15.49817487 20208
SHENZHOU-20 (SZ-20)     
1 63632U 25082A   25323.58512989  .00019179  00000+0  24002-3 0  9996
2 63632  41.4651 157.1900 0007339 196.7661 163.2936 15.59311572255308
PROGRESS-MS 31          
1 64751U 25146A   25323.31903918  .00014458  00000+0  26247-3 0  9995
2 64751  51.6333 258.3957 0004144  86.8503 273.2960 15.49817487  6759
TIANZHOU-9              
1 64786U 25149A   25323.58512989  .00019179  00000+0  24002-3 0  9991
2 64786  41.4651 157.1900 0007339 196.7661 163.2936 15.59311572255309
CREW DRAGON 11          
1 65077U 25166A   25323.31903918  .00014458  00000+0  26247-3 0  9999
2 65077  51.6333 258.3957 0004144  86.8503 273.2960 15.49817487  2140
DRAGON CRS-33           
1 65304U 25186A   25323.31903918  .00014458  00000+0  26247-3 0  9994
2 65304  51.6333 258.3957 0004144  86.8503 273.2960 15.49817487   118
